ONEWEB-0221             
1 48789U 21045Y   23059.26956217  .00000095  00000+0  21752-3 0  9998
2 48789  87.9184 139.0890 0001563 112.1943 247.9353 13.15546166 87096
ONEWEB-0221             
1 48789U 21045Y   23059.57379185 -.00000034  00000+0 -12484-3 0  9992
2 48789  87.9184 139.0291 0001569 112.1909 247.9388 13.15546453 85993
ONEWEB-0221             
1 48789U 21045Y   23059.72590599  .00000039  00000+0  69290-4 0  9994
2 48789  87.9184 138.9989 0001582 112.4323 247.6975 13.15546950 86018
ONEWEB-0221             
1 48789U 21045Y   23060.25830761 -.00000032  00000+0 -11820-3 0  9992
2 48789  87.9183 138.8939 0001600 112.0194 248.1106 13.15547126 86089
ONEWEB-0221             
1 48789U 21045Y   23061.17099615 -.00000008  00000+0 -54100-4 0  9991
2 48789  87.9182 138.7136 0001613 112.4916 247.6386 13.15546965 87340
ONEWEB-0221             
1 48789U 21045Y   23061.62734108 -.00000120  00000+0 -35154-3 0  9996
2 48789  87.9184 138.6236 0001628 112.1329 247.9975 13.15546817 86266
ONEWEB-0221             
1 48789U 21045Y   23062.23579937 -.00000019  00000+0 -83235-4 0  9992
2 48789  87.9183 138.5034 0001649 112.2179 247.9126 13.15547830 86340
ONEWEB-0221             
1 48789U 21045Y   23062.23579937 -.00000019  00000+0 -83235-4 0  9992
2 48789  87.9183 138.5034 0001649 112.2179 247.9126 13.15547830 87486
